[{"OBJECT_NAME":"SATGUS","OBJECT_ID":"2025-009DJ","EPOCH":"2026-03-09T16:57:39.644640","MEAN_MOTION":14.99840473,"ECCENTRICITY":0.00056702,"INCLINATION":97.7097,"RA_OF_ASC_NODE":150.9679,"ARG_OF_PERICENTER":96.3538,"MEAN_ANOMALY":263.8332,"EPHEMERIS_TYPE":0,"CLASSIFICATION_TYPE":"U","NORAD_CAT_ID":62713,"ELEMENT_SET_NO":999,"REV_AT_EPOCH":6264,"BSTAR":0.00076063433,"MEAN_MOTION_DOT":9.37e-5,"MEAN_MOTION_DDOT":0},{"OBJECT_NAME":"STARLINK-36166","OBJECT_ID":"2025-298K","EPOCH":"2026-03-09T22:00:01.999584","MEAN_MOTION":14.98341724,"ECCENTRICITY":0.00028696,"INCLINATION":70.001,"RA_OF_ASC_NODE":14.0309,"ARG_OF_PERICENTER":267.1586,"MEAN_ANOMALY":236.0639,"EPHEMERIS_TYPE":0,"CLASSIFICATION_TYPE":"U","NORAD_CAT_ID":67084,"ELEMENT_SET_NO":999,"REV_AT_EPOCH":590,"BSTAR":-0.0015931599,"MEAN_MOTION_DOT":-0.00019056,"MEAN_MOTION_DDOT":0}]
